[{"OBJECT_NAME":"KUIPER-00021","OBJECT_ID":"2025-088N","EPOCH":"2026-03-09T12:22:26.635584","MEAN_MOTION":14.79971319,"ECCENTRICITY":0.00034919,"INCLINATION":51.8994,"RA_OF_ASC_NODE":104.8534,"ARG_OF_PERICENTER":82.7512,"MEAN_ANOMALY":277.3847,"EPHEMERIS_TYPE":0,"CLASSIFICATION_TYPE":"U","NORAD_CAT_ID":63736,"ELEMENT_SET_NO":999,"REV_AT_EPOCH":4745,"BSTAR":0.0006549213,"MEAN_MOTION_DOT":4.779e-5,"MEAN_MOTION_DDOT":0},{"OBJECT_NAME":"SL-16 R\/B","OBJECT_ID":"1994-074B","EPOCH":"2026-03-09T23:54:25.867008","MEAN_MOTION":14.79408399,"ECCENTRICITY":0.00057986,"INCLINATION":97.7109,"RA_OF_ASC_NODE":99.8014,"ARG_OF_PERICENTER":209.3381,"MEAN_ANOMALY":210.8055,"EPHEMERIS_TYPE":0,"CLASSIFICATION_TYPE":"U","NORAD_CAT_ID":23343,"ELEMENT_SET_NO":999,"REV_AT_EPOCH":68729,"BSTAR":8.5933802e-5,"MEAN_MOTION_DOT":5.92e-6,"MEAN_MOTION_DDOT":0}]
